STARLINK-35365          
1 66186U 25243K   26068.77135727  .00034418  00000+0  11684-2 0  9995
2 66186  53.1581 245.0632 0001015  72.4283 287.6828 15.30211680 20669
2025-313BD              
1 67299U 25313BD  26068.62968741  .00081010  00000+0  27634-2 0  9995
2 67299  97.3970 145.2850 0007287 333.4514  26.6352 15.30002360 10838
